Place_ID,Property,Address,City,State,Zip,Country
51512b54fd976c54c059bad57810f5c04440f00102f90199230c060000000092031a4772656174204c616b657320536369656e63652043656e746572,Great Lakes Science Center,601 Erieside Avenue, Cleveland,OH,44114, United States of America
51b2dc88dd2d6c54c059cf10648275c14440f00103f9011bee35e10000000092032a496e7465726e6174696f6e616c20576f6d656e27732041697220616e64205370616365204d757365756d,International Women's Air and Space Museum,1501 North Marginal Road, Cleveland,OH,44114, United States of America
519cd26ebb406c54c059c44519842bc04440f00102f901701cc305000000009203244d61696e204272616e636820436c6576656c616e64205075626c6963204c696272617279,Main Branch Cleveland Public Library,Superior Avenue East, Cleveland,OH,44114, United States of America
5164ffa097066c54c0594f6fd80affbb4440f00102f901e9ba03130000000092031e41204368726973746d61732053746f727920486f757365204d757365756d,A Christmas Story House Museum,1103 Rowley Avenue, Cleveland,OH,44109, United States of America
5125dac4ea846c54c0594a4c1efa5ac04440f00102f901bd1434190000000092031948696c746f6e20436c6576656c616e6420446f776e746f776e,Hilton Cleveland Downtown,100 Lakeside Avenue East, Cleveland,OH,44114, United States of America
51d5e39b519d6d54c059ceac89339dba4440f00102f901b1c6fd250000000092030d46756c746f6e204272616e6368,Fulton Branch,3545 Fulton Road, Cleveland,OH,44109, United States of America
5161c88044206954c059c257a8c374c24440f00102f901aeccfd250000000092030e41646469736f6e204272616e6368,Addison Branch,6901 Superior Avenue, Cleveland,OH,44103, United States of America
51953e9620966a54c05996d8d906f4bf4440f00102f901f13a5f2c0000000092030a4d63446f6e616c642773,McDonald's,3050 Carnegie Avenue, Cleveland,OH,44115, United States of America
5165bfe65b456954c059fbe48ab15ec14440f00102f90102e418390000000092030c486f756768204272616e6368,Hough Branch,6530 Lexington Avenue, Cleveland,OH,44103, United States of America
5118963fdf966d54c059dfc9e4198fbd4440f00103f90162bc2fa0000000009203114672656465726963682042696379636c65,Frederich Bicycle,3800 Lorain Avenue, Cleveland,OH,44113, United States of America
5151fb08579b6a54c059d240edeb0ac04440f00103f901fd0503800100000092030d47726166666974692043617073,Graffiti Caps,3200 Carnegie Avenue, Cleveland,OH,44115, United States of America
51fa4800ed7d6c54c059136ae905e9bc4440f00103f90141d9ebf5010000009203084c656176656e6564,Leavened,1633 Auburn Avenue, Cleveland,OH,44113, United States of America
514459f8fada6f54c059d8a69a9e0bbe4440f00103f901282b6c4e0200000092031c4368726973746f706869657220437573746f6d20436c6f7468696e67,Christophier Custom Clothing,9308 Clifton Boulevard, Cleveland,OH,44102, United States of America
5166b418a7826c54c059e0fb0f2d17c14440f00101f9014351a3000000000092031a526f636b20616e6420526f6c6c2048616c6c206f662046616d65,Rock and Roll Hall of Fame,East 9th Street, Cleveland,OH,44114, United States of America
51845c3dd8856d54c05956bf0472c1bd4440f00102f901ac902d06000000009203144361726e656769652057657374204272616e6368,Carnegie West Branch,1900 Fulton Road, Cleveland,OH,44113, United States of America
513b4186ad706c54c05900a095e72bc04440f00102f9010976520700000000920328436c6576656c616e64204d617272696f747420446f776e746f776e206174204b657920546f776572,Cleveland Marriott Downtown at Key Tower,1360 West Mall Drive, Cleveland,OH,44114, United States of America
510570c785836954c05941695cf46cbe4440f00102f9013dbfbe0d0000000092030f576f6f646c616e642043616d707573,Woodland Campus,5906 Woodland Avenue, Cleveland,OH,44104, United States of America
5194822238e06b54c05999f29bd757bd4440f00102f901d788a20e0000000092032b436c6576656c616e64205075626c6963204c696272617279202d204a6566666572736f6e204272616e6368,Cleveland Public Library - Jefferson Branch,850 Jefferson Avenue, Cleveland,OH,44113, United States of America
51fdce4076286c54c059a3f0fdf7e0c04440f00102f9017b4c340f00000000920338446f75626c65547265652062792048696c746f6e20486f74656c20436c6576656c616e6420446f776e746f776e202d204c616b6573696465,DoubleTree by Hilton Hotel Cleveland Downtown - Lakeside,1111 Lakeside Avenue East, Cleveland,OH,44114, United States of America
516249b9fb1c6c54c0595546852fa7c04440f00103f901c59bf11500000000920323436c6576656c616e642048756e67617269616e204865726974616765204d757365756d,Cleveland Hungarian Heritage Museum,Selzer Way, Cleveland,OH,44114, United States of America
51b6ea31aa8a6f54c0590388df0b22bd4440f00102f901080119180000000092030d46616d696c7920446f6c6c6172,Family Dollar,8484 Madison Avenue, Cleveland,OH,44102, United States of America
51802b6a5b9f6c54c0598927cd1230bc4440f00102f901d1673d190000000092030c536f757468204272616e6368,South Branch,3096 Scranton Road, Cleveland,OH,44113, United States of America
51f50803567a6a54c0594cb904bf38c14440f00102f90157b271190000000092030d4d61776920576972656c657373,Mawi Wireless,3507 Payne Avenue, Cleveland,OH,44114, United States of America
51044d7ae63c6a54c059b05b203094c04440f00102f901a3bbea26000000009203204368696c6472656ee2809973204d757365756d206f6620436c6576656c616e64,Children’s Museum of Cleveland,3813 Euclid Avenue, Cleveland,OH,44115, United States of America
51b10573aaab6a54c0598ed77c90afbf4440f00102f901e534342d0000000092030f537465726c696e67204272616e6368,Sterling Branch,2200 East 30th Street, Cleveland,OH,44115, United States of America
51c6f4c19f3b6954c0599a726f656ec14440f00102f901e54d412e000000009203184261736562616c6c204865726974616765204d757365756d,Baseball Heritage Museum,6601 Lexington Avenue, Cleveland,OH,44103, United States of America
5198f96937556c54c059a7ab716a31c14440f00102f9018d3d443200000000920314436f6173742047756172642045786368616e6765,Coast Guard Exchange,1055 East 9th Street, Cleveland,OH,44052, United States of America
51a18a76700b6d54c05920262f6695bf4440f00103f901ace66f5f0000000092031a4772656174657220436c6576656c616e6420417175617269756d,Greater Cleveland Aquarium,2000 Sycamore Street, Cleveland,OH,44113, United States of America
519e5f94a0bf6e54c059b5ec0a0cfebd4440f00103f90111c88b670000000092030f43617069746f6c2054686561746572,Capitol Theater,1390 West 65th Street, Cleveland,OH,44102, United States of America
5190d552e5206f54c0593c994512bdbd4440f00103f901ccb249a000000000920314426c617a696e6720536164646c65204379636c65,Blazing Saddle Cycle,7427 Detroit Avenue, Cleveland,OH,44102, United States of America
51f442f0aee96b54c059a9d91fb704c04440f00103f90142eafbc8000000009203084865696e656e2773,Heinen's,900 Euclid Avenue, Cleveland,OH,44115, United States of America
5182c1dabd016c54c059860eec2cc4bf4440f00103f9015de51adf0000000092032d486f74656c20496e6469676f20436c6576656c616e6420446f776e746f776e2c20616e2049484720486f74656c,"Hotel Indigo Cleveland Downtown, an IHG Hotel",651 Huron Road East, Cleveland,OH,44115, United States of America
5135cf6cb2216f54c059cee3a711e9bb4440f00103f901b05b5cfc00000000920309526974652053686f70,Rite Shop,3153 Camden Avenue, Cleveland,OH,44102, United States of America
512ecece586a6d54c05934cb97a6adbd4440f00103f901e53c3843010000009203114c6f726420436974792047616c6c657279,Lord City Gallery,3228 Lorain Avenue, Cleveland,OH,44111, United States of America
51158f8b6a916b54c059b59981b4ffbf4440f00103f901473c405f010000009203074d61657374726f,Maestro,East 14th Street, Cleveland,OH,44115, United States of America
518849b890476c54c059c671f8d8a7c04440f00103f901766322d601000000920303434758,CGX,1240 East 9th Street, Cleveland,OH,44199, United States of America
515e20521dbc6d54c0594bd85aee71bd4440f00103f901291900ee010000009203126475636b2d72616262697420636f66666565,duck-rabbit coffee,4160 Lorain Avenue, Cleveland,OH,44113, United States of America
5182b4102e2e6d54c0593d4168823cbe4440f00103f901735d10f50100000092031c506572706c65786974792047616d65732045736361706520526f6f6d,Perplexity Games Escape Room,2515 Jay Avenue, Cleveland,OH,44113, United States of America
51b9884a7e9f6d54c0591b901c8986bd4440f00103f901710b034a02000000920312416c6c205468696e677320466f7220596f75,All Things For You,3910 Lorain Avenue, Cleveland,OH,44111, United States of America
51b596b844646b54c059cea6eaad26c04440f00103f9013de2bf5d020000009203144d6172696e6f2773204861697263757474696e67,Marino's Haircutting,Euclid Avenue, Cleveland,OH,44115, United States of America
51d1f07739b66a54c059c72bc3a222c14440f00103f901f00e2c78020000009203154d65645769736820496e7465726e6174696f6e616c,MedWish International,1625 East 31st Street, Cleveland,OH,44114, United States of America
5161f9f36d416a54c05909cde76b3bc04440f00103f90129e21d9c02000000920321476174657761792043687572636820446f776e746f776e20436c6576656c616e64,Gateway Church Downtown Cleveland,3746 Prospect Avenue East, Cleveland,OH,44115, United States of America
51de466b316d6c54c0591bbed69ab9c04440f00102f90163eb71020000000092031357696c6c617264205061726b20476172616765,Willard Park Garage,South Marginal Road, Cleveland,OH,44103, United States of America
51d67bb02c266c54c059466d698007c04440f00102f90120cdc3060000000092030a35313520476172616765,515 Garage,515 Euclid Avenue, Cleveland,OH,44114, United States of America
517104427aba6b54c05939acd294f6bf4440f00102f9016369f106000000009203105468652048616c6c6520476172616765,The Halle Garage,1212 Huron Road East, Cleveland,OH,44115, United States of America
5150a590cf1b6c54c0592277c00ce3bf4440f00102f9014a218f0700000000920312357468205374726565742041726361646573,5th Street Arcades,530 Euclid Avenue, Cleveland,OH,44115, United States of America
511af086871f6c54c059fadb42d39fc04440f00102f901a08558080000000092031447616c6c65726961206174204572696576696577,Galleria at Erieview,1301 East 9th Street, Cleveland,OH,44114, United States of America
5190718e07bd6854c059821e421a77c04440f00102f901eac5bb0f00000000920304414c4449,ALDI,7500 Euclid Avenue, Cleveland,OH,44103, United States of America
5175c93846b26e54c0597bc45fd8f5bd4440f00103f90128b44e1500000000920318436c6576656c616e64205075626c69632054686561747265,Cleveland Public Theatre,Detroit Avenue, Cleveland,OH,44102, United States of America
516db9b958bd6a54c05908c2b5a873c14440f00102f901d3bd5719000000009203154c6f752773204275792d57697365204d61726b6574,Lou's Buy-Wise Market,3250 Superior Avenue East, Cleveland,OH,44114, United States of America
51494d438ff86b54c0593aed347321bf4440f00102f9010b259d190000000092031b5765737465726e20526573657276652046697265204d757365756d,Western Reserve Fire Museum,310 Carnegie Avenue, Cleveland,OH,44115, United States of America
5192b229dc8c6c54c0595a9c5222f0c04440f00102f901c9f5a8240000000092030c446f6d652054686561746572,Dome Theater,Erieside Avenue, Cleveland,OH,44114, United States of America
51ae3850fe916c54c059b25298f1f3c04440f00102f901ccf5a8240000000092031154686520536369656e63652053746f7265,The Science Store,Erieside Avenue, Cleveland,OH,44114, United States of America
51362130d0fe6954c05987bdd47e70bc4440f00102f9013305b82a00000000920316426f68656d69616e204e6174696f6e616c2048616c6c,Bohemian National Hall,4939 Broadway Avenue, Cleveland,OH,44105, United States of America
512f6cf58b326c54c059ff6d3aede7bf4440f00102f901019e97390000000092030e486f757365206f6620426c756573,House of Blues,308 Euclid Avenue, Cleveland,OH,44114, United States of America
51b02a486e256954c059b83d5f44acc04440f00102f901a96604470000000092032044756e68616d2054617665726e204d757365756d20616e642047617264656e73,Dunham Tavern Museum and Gardens,6709 Euclid Avenue, Cleveland,OH,44103, United States of America
511d2a7c6c816f54c0593d082d1f93bd4440f00103f9016d4f076600000000920313446574726f6974204175746f20436c696e6963,Detroit Auto Clinic,8324 Detroit Avenue, Cleveland,OH,44102, United States of America
51449ac294926b54c059c79cdeaf02c04440f00103f901a6e67e670000000092030d48616e6e612054686561746572,Hanna Theater,Brownell Court, Cleveland,OH,44115, United States of America
51530438bd8b6b54c059afab6e2931c04440f00103f901bce67e670000000092030e50616c6163652054686561747265,Palace Theatre,1615 Euclid Avenue, Cleveland,OH,44115, United States of America
5146fd9a51986b54c0596f825efd33c04440f00103f9010be77e670000000092030c4f68696f2054686561747265,Ohio Theatre,1511 Euclid Avenue, Cleveland,OH,44115, United States of America
514ab6ba9c926b54c0594c5cc74730c04440f00103f9013ee77e670000000092030d53746174652054686561747265,State Theatre,1519 Euclid Avenue, Cleveland,OH,44115, United States of America
51469b3e96996b54c05990dd5ab510c04440f00103f90154e77e670000000092031331347468205374726565742054686561746572,14th Street Theater,East 14th Street, Cleveland,OH,44115, United States of America
51d8be36d19d6b54c0593aa91eae30c04440f00103f901a9027f670000000092030d416c6c656e2054686561747265,Allen Theatre,1501 Euclid Avenue, Cleveland,OH,44115, United States of America
5122bda8dd2f6c54c059946f6001f1bf4440f00103f901a814359000000000920314434c4520436c6f7468696e6720436f6d70616e79,CLE Clothing Company,East 4th Street, Cleveland,OH,44114, United States of America
5162a30799bf6e54c059fb78f3f400be4440f00103f901607e9e9c000000009203144861757366726175205265636f72642053686f70,Hausfrau Record Shop,1388 West 65th Street, Cleveland,OH,44102, United States of America
5112ef004fda6c54c05932d5ea95b2be4440f00103f901324712d8000000009203174f68696f20436974792042696379636c6520436f2d6f70,Ohio City Bicycle Co-op,1840 Columbus Road, Cleveland,OH,44113, United States of America
5173e0302cda6c54c0590717bea8ddbf4440f00103f901c8b361dc0000000092031053616c6f6e204d616e64616c66696e6f,Salon Mandalfino,1300 West 9th Street, Cleveland,OH,44113, United States of America
514ea214634f6c54c059d19d1596d3bf4440f00103f9011985c0dc00000000920314446f776e746f776e20436f6e76656e69656e6365,Downtown Convenience,2033 Ontario Street, Cleveland,OH,44115, United States of America
51fc1bb4571f6c54c0592ddac62ef6bf4440f00103f9017593d8dc0000000092031659756d2059756d2773206f6620436c6576656c616e64,Yum Yum's of Cleveland,512 Euclid Avenue, Cleveland,OH,44115, United States of America
51f9e989f8986d54c0592231ea4482bd4440f00103f90115c3dde600000000920309426c6573736b69747a,Blesskitz,3825 Lorain Avenue, Cleveland,OH,44111, United States of America
51699b87b85e6d54c0595780b0e2f9bd4440f00103f9016f412afc0000000092030e50686f656e697820436f66666565,Phoenix Coffee,Bridge Avenue, Cleveland,OH,44102, United States of America
51f5801e0fa26d54c059d1ef6f70d8ba4440f00103f9016ffe3ffd000000009203086265656469652773,beedie's,Marvin Avenue, Cleveland,OH,44109, United States of America
5106e4011bc66e54c059769b0926edbd4440f00103f90151119a190100000092030a436f6f6c20576f726c64,Cool World,6511 Detroit Avenue, Cleveland,OH,44102, United States of America
51620c512a066e54c0597bf8240626bb4440f00103f9016f09a44101000000920314436f6e76656e69656e7420466f6f64204d617274,Convenient Food Mart,West 47th Street, Cleveland,OH,44102, United States of America
51e675c4211b6954c0593f68c16499c04440f00103f9015b49bf4301000000920315546865204d6964546f776e20546563682048697665,The MidTown Tech Hive,6815 Euclid Avenue, Cleveland,OH,44103, United States of America
519ee40e9b486c54c0595ce4269efdbf4440f00103f90131411f450100000092030f546865204f70746963616c20436f2e,The Optical Co.,200 Euclid Avenue, Cleveland,OH,44114, United States of America
517675221c8e6b54c0599fee031f28c04440f00103f9017007cf4601000000920307436f72626f2773,Corbo's,1603 Euclid Avenue, Cleveland,OH,44115, United States of America
51008a366c806b54c059b091b2d41fc04440f00103f90157cca7470100000092030f426f6e666f65792047616c6c657279,Bonfoey Gallery,1710 Euclid Avenue, Cleveland,OH,44115, United States of America
5172c7f6b5896d54c059febd9e3ea7be4440f00103f9019696b46d0100000092030e4c7563612773204261726b657279,Luca's Barkery,2929 Detroit Avenue, Cleveland,OH,44113, United States of America
51aeca2a114d6b54c059342ca1a52bc04440f00103f901ee1cab740100000092031142726f7468657273205072696e74696e67,Brothers Printing,2000 Euclid Avenue, Cleveland,OH,44115, United States of America
51b8dc05ef506d54c059b5bcaddee1be4440f00103f901ecb6537f0100000092030c442e4f2e2053756d6d657273,D.O. Summers,2550 Detroit Avenue, Cleveland,OH,44113, United States of America
51e373dd4a656a54c059478c2f6931c14440f00103f901e692daab0100000092030b4b6f6b6f2042616b657279,Koko Bakery,3710 Payne Avenue, Cleveland,OH,44114, United States of America
5126e03202056e54c05931f48cc289bd4440f00103f9016a7c1f01020000009203144b6f756c6f752773204d61726b6574706c616365,Koulou's Marketplace,4700 Bridge Avenue, Cleveland,OH,44102, United States of America
519ed2776d256c54c0598620cfce58ba4440f00103f9013f12be1802000000920304414c4449,ALDI,3586 Steelyard Drive, Cleveland,OH,44109, United States of America
510df0ee12e66954c0596222943c32c04440f00103f901d6c3151e0200000092031f442e4f2e2053756d6d65727320436c65616e6572732026204c61756e647279,D.O. Summers Cleaners & Laundry,Carnegie Avenue, Cleveland,OH,44106, United States of America
512786e464626d54c059b3ee40e2b2bd4440f00103f901cfea823202000000920327434a27732050726f20457373696f6e616c204166726963616e2048616972204272616964696e67,CJ's Pro Essional African Hair Braiding,3202 Lorain Avenue, Cleveland,OH,44113, United States of America
515d876a4ab26b54c059887df4812ebd4440f00103f90135e2ff3e02000000920313417072696c20536e6f7720426f757469717565,April Snow Boutique,2501 Professor Avenue, Cleveland,OH,44113, United States of America
51f19073ac9c6d54c05920752ec088bd4440f00103f901dc3f044a0200000092030f48656c6d20436f6c6c656374697665,Helm Collective,3904 Lorain Avenue, Cleveland,OH,44111, United States of America
517f0a911d656d54c0595ef61d52b1bd4440f00103f9012953054a020000009203144f68696f20436974792050726f766973696f6e73,Ohio City Provisions,3208 Lorain Avenue, Cleveland,OH,44111, United States of America
5195720866966b54c0597230b70a07c04440f00103f90153b1bc5d02000000920313526566696e6572792042617262657273686f70,Refinery Barbershop,2051 East 14th Street, Cleveland,OH,44115, United States of America
512b8a5759db6b54c05987a9dd9909c04440f00103f901c9e9bd5d020000009203154d656e27732044657369676e6572204f75746c6574,Men's Designer Outlet,1104 Euclid Avenue, Cleveland,OH,44114, United States of America
51dd81959e446b54c059b53297992dc04440f00103f901c42ec05d0200000092031e43687269737469616e20536369656e63652052656164696e6720526f6f6d,Christian Science Reading Room,Euclid Avenue, Cleveland,OH,44115, United States of America
51065a2668b86954c0591500ffd9eabb4440f00103f9018619ea890200000092031244656d6d79205265636974616c2048616c6c,Demmy Recital Hall,5415 Broadway Avenue, Cleveland,OH,44105, United States of America
5178909e22876d54c0596f6d10e1a9be4440f00103f9015a1d0c9702000000920317506174726f6e205361696e742043616665202b20426172,Patron Saint Cafe + Bar,2915 Detroit Avenue, Cleveland,OH,44113, United States of America
51a0431608d96c54c059786e985d39bf4440f00101f901787c73000000000092030653756e6f636f,Sunoco,Center Street, Cleveland,OH,44113, United States of America
5105bcb9f02f6b54c0599c2a32b6ecbf4440f00102f901917932030000000092030c536f75746820476172616765,South Garage,Carnegie Avenue, Cleveland,OH,44106, United States of America
51d249ddbb036d54c0595363fb5d2ebe4440f00102f901ef38940500000000920318576573742053696465204d61726b6574205061726b696e67,West Side Market Parking,Market Avenue, Cleveland,OH,44113, United States of America
51fc821942246d54c0593bb5bd7cc7bd4440f00102f9010c099e050000000092031453742e2049676e6174697573205061726b696e67,St. Ignatius Parking,West 29th Street, Cleveland,OH,44113, United States of America
515cb38823136c54c0590124e4b937c14440f00102f9019c95f005000000009203084d756e69204c6f74,Muni Lot,North Marginal Road, Cleveland,OH,44114, United States of America
51a36239ff906c54c05917fc0a7dfcba4440f00102f901292829060000000092030b5669657720476172616765,View Garage,View Road, Cleveland,OH,44109, United States of America
518f5a3f71496c54c0596d419485ffc04440f00102f901c642aa060000000092031a4e6f72746820506f696e74205061726b696e6720476172616765,North Point Parking Garage,Cleveland Memorial Shoreway, Cleveland,OH,44114, United States of America
51d18579271e6c54c05943a23ae420c04440f00102f901d671dd060000000092031246696674682054686972642043656e746572,Fifth Third Center,Vincent Avenue, Cleveland,OH,44114, United States of America
51768debde496c54c05972ea1623cbbf4440f00102f901e0f2e6060000000092031d4f6e746172696f20537472656574205061726b696e6720476172616765,Ontario Street Parking Garage,2047 Ontario Street, Cleveland,OH,44113, United States of America
51cd180929846b54c059e9e70a0f5ac04440f00102f901937cf3060000000092030b5765737420476172616765,West Garage,East 17th Street, Cleveland,OH,44114, United States of America
513786052ea96b54c059b0e7b31156c04440f00102f901977cf30600000000920317506c6179686f757365537175617265205061726b696e67,PlayhouseSquare Parking,Dodge Court, Cleveland,OH,44114, United States of America
5121164aeaeb6a54c0595a7daf3a7ac04440f00102f901ea4a35070000000092030b4561737420476172616765,East Garage,Chester Avenue, Cleveland,OH,44103, United States of America
51ce80e8a6356c54c059be2a84a1adbf4440f00102f901a80252070000000092031c436f6c6c656374696f6e204175746f2047726f75702043656e747265,Collection Auto Group Centre,East 2nd Street, Cleveland,OH,44115, United States of America
51e520e6a5826c54c05911f1fd9e31bb4440f00102f901bb648c0700000000920306546f6f6d6579,Toomey,Metrohealth Drive, Cleveland,OH,44109, United States of America
51be6e9d71556c54c05962d8e61515bb4440f00102f9012b9bbb070000000092031357616c6d61727420537570657263656e746572,Walmart Supercenter,3400 Steelyard Drive, Cleveland,OH,44109, United States of America
51083198aec16b54c059fefbde9099c14440f00102f9017fdbde07000000009203084d756e69204c6f74,Muni Lot,North Marginal Road, Cleveland,OH,44114, United States of America
515dac14b0af6a54c059ffe6bc9784c04440f00102f901c9361a080000000092030a435355204c6f74204141,CSU Lot AA,East 30th Street, Cleveland,OH,44114, United States of America
515e48022cc96a54c05904694f570dc04440f00102f901cf361a080000000092031043656e7472616c20436164696c6c6163,Central Cadillac,Carnegie Avenue, Cleveland,OH,44106, United States of America
51ef7fcedd536b54c059e367d4c65ec04440f00102f9013b9c39080000000092030e43656e7472616c20476172616765,Central Garage,East 19th Street, Cleveland,OH,44114, United States of America
512f702c798f6a54c059d4f651affdc14440f00102f9011621ae080000000092030d4d61727320456c656374726963,Mars Electric,East 39th Street, Cleveland,OH,44114, United States of America
51951e219a4b6a54c059aa310942b2c04440f00102f901752aae08000000009203174465616c65722054697265204c4c43205061726b696e67,Dealer Tire LLC Parking,Chester Avenue, Cleveland,OH,44113, United States of America
515d310a620e6c54c059237a7d952ac04440f00102f9014fda01090000000092030e4b657942616e6b20476172616765,KeyBank Garage,800 Superior Plaza, Cleveland,OH,44114, United States of America
51ff81b85fd56b54c0593351dd9968c04440f00102f901b6133009000000009203165265736572766520537175617265205061726b696e67,Reserve Square Parking,East 12th Street, Cleveland,OH,44114, United States of America
5148e77be0f26b54c0597e6fbcc43ec04440f00102f901e18a190a0000000092031148756e74696e67746f6e20476172616765,Huntington Garage,Walnut Avenue, Cleveland,OH,44114, United States of America
513de88c34a76a54c0592931463608c04440f00102f90194272b0a00000000920317446f64642043616d65726120616e6420496d6167696e67,Dodd Camera and Imaging,Carnegie Avenue, Cleveland,OH,44106, United States of America
514f3572479e6a54c059de40f4ac15c14440f00102f901e2282b0a0000000092030a4c61756e64726f6d6174,Laundromat,East 32nd Street, Cleveland,OH,44114, United States of America
513cdaf254656a54c059c2661cdd87c04440f00102f901f1c82d0a000000009203224d61736f6e696320616e6420506572666f726d696e6720417274732043656e746572,Masonic and Performing Arts Center,3615 Euclid Avenue, Cleveland,OH,44115, United States of America
517d85d675226c54c0595c710a105fc14440f00102f90107728d0a000000009203294275726b65204c616b6566726f6e7420416972706f7274204c6f6e672d7465726d205061726b696e67,Burke Lakefront Airport Long-term Parking,North Marginal Road, Cleveland,OH,44114, United States of America
511ad7224e7d6d54c059338382bf93be4440f00102f9016132a20d000000009203135472616e73666f726d65722053746174696f6e,Transformer Station,West 29th Street, Cleveland,OH,44113, United States of America
5140c1033beb6954c0597132f99431c24440f00102f901731fb40d0000000092030e446f6c6c61722047656e6572616c,Dollar General,East 51st Street, Cleveland,OH,44103, United States of America
517d5d5e7b406a54c05904718bdbb5c04440f00102f9010b92380e000000009203174465616c65722054697265204c4c43205061726b696e67,Dealer Tire LLC Parking,Chester Avenue, Cleveland,OH,44113, United States of America
518e7b8539bd6954c059fcba9076a2bf4440f00102f9010af6770e0000000092030e446f6c6c61722047656e6572616c,Dollar General,East 55th Street, Cleveland,OH,44105, United States of America
512940a8d0bb6954c0592857231292bf4440f00102f9010bf6770e000000009203084d26492044656c69,M&I Deli,East 55th Street, Cleveland,OH,44105, United States of America
515706584bac6954c059fc9216f05fbf4440f00102f9010ff6770e0000000092030e416c6c656e204861726477617265,Allen Hardware,2733 East 55th Street, Cleveland,OH,44105, United States of America
51b3fe3b47c96954c0592f97c66350c24440f00102f9015f46980e000000009203085269746520416964,Rite Aid,East 53rd Street, Cleveland,OH,44103, United States of America
51aa379682bd6954c059bf63cda508c14440f00102f901534c1e0f0000000092031e412d546f2d5a204170706c69616e636520616e64204675726e6974757265,A-To-Z Appliance and Furniture,Commerce Avenue, Cleveland,OH,44114, United States of America
51fe44a40caf6954c05976911f70b3c04440f00102f901564c1e0f000000009203174b72616d2026204b72616d204175746f20526570616972,Kram & Kram Auto Repair,East 55th Street, Cleveland,OH,44105, United States of America
51f67c42d2226c54c0598ef8a4f4bebd4440f00102f901ed9b890f000000009203044c6f6f70,Loop,Fairfield Avenue, Cleveland,OH,44113, United States of America
51d6341144ec6c54c059b506ac6b2cbc4440f00102f901bbcf5d11000000009203084175746f5a6f6e65,AutoZone,Clark Avenue, Cleveland,OH,44102, United States of America
51e2315f06af6954c059b448fa2aa7c04440f00102f901064129120000000092031a426f73776f72746820496e647573747269616c20537570706c79,Bosworth Industrial Supply,East 55th Street, Cleveland,OH,44105, United States of America
51a9a17e508d6e54c059d8f8435b03be4440f00102f901efcac0120000000092030a536176652d412d4c6f74,Save-A-Lot,Waverly Court, Cleveland,OH,44199, United States of America
51a65192bf056c54c05925e54395f5bb4440f00102f901e7bb03130000000092032141204368726973746d61732053746f727920486f75736520476966742053686f70,A Christmas Story House Gift Shop,West 11th Street, Cleveland,OH,44113, United States of America
510d72852d0d6b54c059492f4f0f20c04440f00102f901a56eaa150000000092030f50726f737065637420476172616765,Prospect Garage,Prospect Avenue East, Cleveland,OH,44115, United States of America
51a21d5d8af76b54c0590f061f1656c04440f00102f901856bf9150000000092031431313030205375706572696f7220476172616765,1100 Superior Garage,Walnut Avenue, Cleveland,OH,44114, United States of America
5164caba7c356c54c059d321e48256c14440f00102f90133cd51160000000092032a4275726b65204c616b6566726f6e7420416972706f72742053686f72742d7465726d205061726b696e67,Burke Lakefront Airport Short-term Parking,North Marginal Road, Cleveland,OH,44114, United States of America
51e123d24a416c54c059c8e001273cc14440f00102f9016f8453160000000092031755535320436f642056697369746f72205061726b696e67,USS Cod Visitor Parking,North Marginal Road, Cleveland,OH,44114, United States of America
5150da421f3e6d54c059ac7f22ec2fbc4440f00102f9014b57ad16000000009203085269746520416964,Rite Aid,Clark Avenue, Cleveland,OH,44102, United States of America
512f324624326d54c0594d59440819bc4440f00102f9014c57ad1600000000920310436c61726b20436f6e76656e69656e74,Clark Convenient,Clark Avenue, Cleveland,OH,44102, United States of America
51572e7654306d54c059695e50d031bc4440f00102f9016257ad1600000000920312416476616e6365204175746f205061727473,Advance Auto Parts,Clark Avenue, Cleveland,OH,44102, United States of America
51c855d419a46d54c059aad4a44419bc4440f00102f901aaabaf160000000092030942616e6b204e657773,Bank News,Clark Avenue, Cleveland,OH,44102, United States of America
51a6e61caa846b54c059477f460276c04440f00102f9010bdfe61600000000920308436f6e7261642773,Conrad's,Chester Avenue, Cleveland,OH,44103, United States of America
514ea5819a286e54c059f5312d5b4cbe4440f00102f9012d561417000000009203124d617374657273204175746f2053616c6573,Masters Auto Sales,4910 Detroit Avenue, Cleveland,OH,44199, United States of America
517f915e11386e54c0597808366045be4440f00102f9012e56141700000000920314426967204a6f652773204175746f2053616c6573,Big Joe's Auto Sales,5100 Detroit Avenue, Cleveland,OH,44199, United States of America
516f77adf1996e54c059a045be5de0bc4440f00102f901ee7a46170000000092031041524a2773204175746f2053616c6573,ARJ's Auto Sales,West 61st Street, Cleveland,OH,44102, United States of America
5129d0daad8b6e54c0595962e3952abc4440f00102f901f37a461700000000920306552d4861756c,U-Haul,Train Avenue, Cleveland,OH,44102, United States of America
519d258dae056f54c05934886efec4bd4440f00102f9011b9455170000000092030d46616d696c7920446f6c6c6172,Family Dollar,7301 Detroit Avenue, Cleveland,OH,44102, United States of America
51ca393a03976954c0591eae8a8306c34440f00102f901e9d4a0170000000092030c5368656c6967612044727567,Sheliga Drug,6025 Saint Clair Avenue, Cleveland,OH,44103, United States of America
518014ba29d16c54c059ec3bc73ce8bb4440f00102f901acf701180000000092030a545341204d6f746f7273,TSA Motors,West 26th Place, Cleveland,OH,44109, United States of America
51d82ab1982e6d54c059d9c7447d12be4440f00102f90135130b180000000092031a446176652773204d61726b657473202d204f68696f2043697479,Dave's Markets - Ohio City,Bridge Avenue, Cleveland,OH,44102, United States of America
51152e15273e6d54c0590df9d90914bc4440f00102f9010a921b180000000092030957616c677265656e73,Walgreens,West 34th Place, Cleveland,OH,44109, United States of America
51ccd9815e0d6d54c0598d9dba830fbc4440f00102f9010d921b18000000009203134f275265696c6c79204175746f205061727473,O'Reilly Auto Parts,West 32nd Street, Cleveland,OH,44109, United States of America
51571d39d2996e54c059a8a0ad23fdbd4440f00102f9013e5a24180000000092030f53746f636b79617264204d65617473,Stockyard Meats,6105 Detroit Avenue, Cleveland,OH,44102, United States of America
5114f0728eaa6f54c059a20713398cbd4440f00102f90124c636180000000092030a4461697279204d617274,Dairy Mart,West 89th Street, Cleveland,OH,44102, United States of America
5159c1b8f4016f54c059190ad29cdcbd4440f00102f9012ac636180000000092031a4372616369756e2042657272792046756e6572616c20486f6d65,Craciun Berry Funeral Home,7200 Detroit Avenue, Cleveland,OH,44102, United States of America
51b7f0a88dea6d54c05932da936a53bd4440f00102f90137553419000000009203114c616b6573686f7265204d6f746f722773,Lakeshore Motor's,Lorain Avenue, Cleveland,OH,44111, United States of America
5125679a78c76e54c059899e994cc2bc4440f00102f9013e5534190000000092030f4e6174696f6e77696465204175746f,Nationwide Auto,Colgate Court, Cleveland,OH,44102, United States of America
51d6972462f66e54c059f86a1047a3bc4440f00102f90145553419000000009203104a2026204a204175746f2053616c6573,J & J Auto Sales,Colgate Court, Cleveland,OH,44102, United States of America
51dae121d4e46f54c059ad3d1bcb7bbd4440f00102f9010d9344190000000092030b4e6f6f72204d61726b6574,Noor Market,Detroit Avenue, Cleveland,OH,44102, United States of America
51295ccc24a36f54c0596f00ed29fcbd4440f00102f901299844190000000092031665646765776174657220636f726e65722073746f7265,edgewater corner store,Lake Avenue, Cleveland,OH,44107, United States of America
51f9162d74686a54c05987fa000135bf4440f00102f9018d9f44190000000092030d436f6e76656e742073746f7265,Convent store,Community College Avenue, Cleveland,OH,44115, United States of America
514fb122e4936a54c059f5678e12e4be4440f00102f901884c5d190000000092030c41545443207061726b696e67,ATTC parking,Woodland Avenue, Cleveland,OH,44104, United States of America
51d6679f46ca6f54c0593c8569cc24bd4440f00102f901dceb8d190000000092030e446f6c6c61722047656e6572616c,Dollar General,Madison Avenue, Cleveland,OH,44102, United States of America
5174db1bba906b54c0595cefc3978abf4440f00102f901264db91900000000920310576f726c64204175746f205061727473,World Auto Parts,1240 Carnegie Avenue, Cleveland,OH,44106, United States of America
518f8fd225656d54c05929a1a6f749bb4440f00102f90156f98d1a0000000092030f46756c746f6e204265766572616765,Fulton Beverage,Rhodes Court, Cleveland,OH,44109, United States of America
513ef9fbd5ad6e54c059b4663effd0bc4440f00102f90148fb9f1a0000000092031243617265792046756e6572616c20486f6d65,Carey Funeral Home,Lorain Avenue, Cleveland,OH,44111, United States of America
51b0b82d03726954c05902158ed5a1c04440f00102f9010c02cf1a0000000092031744756269636b2046697874757265202620537570706c79,Dubick Fixture & Supply,6201 Euclid Avenue, Cleveland,OH,44103, United States of America
510909bda3ab6e54c0594a96afb5f7bd4440f00102f901fd61fe1a0000000092030c545244204c65617468657273,TRD Leathers,6321 Detroit Avenue, Cleveland,OH,44102, United States of America
51c803e473866e54c0592532323b19be4440f00102f9019835571b0000000092031e427565686e657273204f666669636520537570706c7920436f2e20496e63,Buehners Office Supply Co. Inc,Detroit Avenue, Cleveland,OH,44199, United States of America
518db564fa8a6d54c05986ca5ae3a2be4440f00102f90119a1761b00000000920310412d3120426174746572792053686f70,A-1 Battery Shop,2935 Detroit Avenue, Cleveland,OH,44199, United States of America
51b325b3a45e6e54c0595e153e341bbe4440f00102f90127ed7f1b000000009203074173746f726961,Astoria,West 55th Place, Cleveland,OH,44102, United States of America
51102b70562f6e54c059acacfe1938be4440f00102f90148f1921b000000009203105275737327204175746f2053616c6573,Russ' Auto Sales,5001 Detroit Avenue, Cleveland,OH,44199, United States of America
512d62fcca336a54c059bcdc68ce29c04440f00102f90151189d1b0000000092030f537574746f6e204861726477617265,Sutton Hardware,Carnegie Avenue, Cleveland,OH,44106, United States of America
51bad683ee376e54c0597ad459bcfdbd4440f00102f9013ed7da1b0000000092030e4f68696f20436974792044656c69,Ohio City Deli,5106 Franklin Boulevard, Cleveland,OH,44102, United States of America
5122d078d7eb6c54c0595bc57902afbe4440f00102f90145ed511d0000000092031a4d657277696e2773205768617266205061726b696e67204c6f74,Merwin's Wharf Parking Lot,Merwin Avenue, Cleveland,OH,44113, United States of America
5124e19618746b54c05948c1ce0842c14440f00102f9010406521d00000000920317466f726573742043697479205370656369616c74696573,Forest City Specialties,2169 Saint Clair Avenue Northeast, Cleveland,OH,44114, United States of America
51aa0606b5446b54c059cda9eabe52c14440f00102f9012606521d000000009203105368657277696e2d57696c6c69616d73,Sherwin-Williams,East 24th Street, Cleveland,OH,44114, United States of America
514b4582edca6c54c0591f3c551887bb4440f00102f9014e9a6d1d0000000092030e4469636b69652773204c616e6573,Dickie's Lanes,3275 West 25th Street, Cleveland,OH,44109, United States of America
51c495b31ed96c54c059293a98c87cbd4440f00102f901589a6d1d0000000092030d544b204175746f2053616c6573,TK Auto Sales,West 25th Street, Cleveland,OH,44109, United States of America
517ba8fb02dc6c54c05937ee603df8ba4440f00102f901fd461b1e000000009203134e657720546f776e204175746f2053616c6573,New Town Auto Sales,Woodbridge Avenue, Cleveland,OH,44109, United States of America
51bb65b324ca6c54c0597930295d78bc4440f00102f901fe461b1e000000009203104d6574726f204175746f2053616c6573,Metro Auto Sales,2900 West 25th Street, Cleveland,OH,44109, United States of America
5186a3d70edb6f54c05918bf16830bbe4440f00102f90109ed4a1e0000000092031d4368726973746f706869657220437573746f6d20436c6f746869657273,Christophier Custom Clothiers,Lake Avenue, Cleveland,OH,44107, United States of America
51f3229bf9ea6c54c059aff28ed645bf4440f00102f90156723d1f0000000092030e466c61742049726f6e2043616665,Flat Iron Cafe,1114 Center Street, Cleveland,OH,44113, United States of America
51d7a22fda356954c059ec4fc6287cc04440f00102f901193f511f0000000092031847616c6c756363692773204974616c69616e20466f6f6473,Gallucci's Italian Foods,Euclid Avenue, Cleveland,OH,44103, United States of America
51b9295a6d5b6d54c059ef97e8b6b8be4440f00102f9013737661f0000000092031852657820426f647920262046656e64657220526570616972,Rex Body & Fender Repair,Church Avenue, Cleveland,OH,44113, United States of America
518ed8ec67bf6c54c0592357aca65cbc4440f00102f9016c4e0d20000000009203055a7562656c,Zubel,2969 West 25th Street, Cleveland,OH,44109, United States of America
518dd44566546f54c0590cfeb81d51bc4440f00102f901ad9b4f200000000092030844616d7065722773,Damper's,Nordica Court, Cleveland,OH,44102, United States of America
5131436155b36954c0599f26da5fdcbb4440f00102f9013e5263200000000092030d4875626361702048656176656e,Hubcap Heaven,Broadway Avenue, Cleveland,OH,44105, United States of America
51dc255b09ee6d54c059946bc8f614bc4440f00102f901d24f8d2000000000920310436c61726b204175746f205061727473,Clark Auto Parts,Clark Avenue, Cleveland,OH,44102, United States of America
510c6263550d6e54c059a8ddd06f28bc4440f00102f901d44f8d200000000092030f5261696e626f77204d7566666c6572,Rainbow Muffler,West 48th Place, Cleveland,OH,44102, United States of America
51d446645d2c6c54c059f6f2746370bd4440f00102f901fdb7952000000000920319556b7261696e69616e204d757365756d2d4172636869766573,Ukrainian Museum-Archives,Kenilworth Avenue, Cleveland,OH,44113, United States of America
518462e460306e54c0593f13d2e947be4440f00102f90165ae9b2000000000920313446574726f6974204175746f20526570616972,Detroit Auto Repair,Detroit Avenue, Cleveland,OH,44199, United States of America
517d43ed870f6e54c059b141b1b228bb4440f00102f901e04c59210000000092031e4d722e20432026204d65204175746f20536572766963652043656e746572,Mr. C & Me Auto Service Center,West 47th Street, Cleveland,OH,44102, United States of America
5118796192b76d54c0598874d2f7abbd4440f00102f90137aa2b22000000009203094164616d2044656c69,Adam Deli,4020 Bridge Avenue, Cleveland,OH,44102, United States of America
51456e7d9ec16e54c0593e5ff3bee5bc4440f00102f901c7ac2b220000000092030941264620466f6f6473,A&F Foods,Colgate Avenue, Cleveland,OH,44102, United States of America
51e05e013cc66e54c0599bf6e586afbc4440f00102f9011c1643220000000092030f4e6174696f6e77696465204175746f,Nationwide Auto,Lorain Avenue, Cleveland,OH,44111, United States of America
51e84d452a8c6a54c059b026997535c04440f00102f9012aa36c2200000000920309422e412e2044656c69,B.A. Deli,3211 Prospect Avenue East, Cleveland,OH,44115, United States of America
512fa35fd86f6954c0594ff51db0c9c04440f00102f901cd6d882200000000920306446176652773,Dave's,Chester Avenue, Cleveland,OH,44103, United States of America
5172625ef5d96e54c0594cafa6b09ebc4440f00102f901f249c022000000009203134175746f706172747320556e6c696d69746564,Autoparts Unlimited,Nordica Court, Cleveland,OH,44102, United States of America
51883add72cb6e54c0592675fd83bfbc4440f00102f90194dfc4220000000092030b4472697665205472656e64,Drive Trend,6540 Lorain Avenue, Cleveland,OH,44111, United States of America
51fd0a2e23f06e54c059eb3cf53ca5bc4440f00102f90195dfc422000000009203045370696e,Spin,Lorain Avenue, Cleveland,OH,44111, United States of America
511870e01fc06e54c059aa36498215bc4440f00102f9018acdcb220000000092030d46616d696c7920446f6c6c6172,Family Dollar,Clark Avenue, Cleveland,OH,44102, United States of America
515e9f0f76346f54c0591e69653820bd4440f00102f901af0a002800000000920311416c6578616e64726961204d61726b6574,Alexandria Market,7602 Madison Avenue, Cleveland,OH,44102, United States of America
515bd9c711706a54c059691bce5620c24440f00102f9017a86a1280000000092030c4b6f6369616e204d65617473,Kocian Meats,East 41st Street, Cleveland,OH,44103, United States of America
514fdcb9933c6a54c059284bfd069fc04440f00102f901da554829000000009203204368696c6472656ee2809973204d757365756d206f6620436c6576656c616e64,Children’s Museum of Cleveland,Chester Avenue, Cleveland,OH,44103, United States of America
5136f943803b6a54c059d905a29a7fc04440f00102f901ee0f4929000000009203204368696c6472656ee2809973204d757365756d206f6620436c6576656c616e64,Children’s Museum of Cleveland,Euclid Avenue, Cleveland,OH,44115, United States of America
513bca5e67ca6c54c0596d2eb6b35fbc4440f00102f901d397262c0000000092030d4d61747472657373204b696e67,Mattress King,2885 West 25th Street, Cleveland,OH,44109, United States of America
51295a820a3a6e54c059730f703822bc4440f00102f901d91e2b310000000092032d4c616b6573686f7265204665656420616e6420536565642050657420466f6f6420616e6420537570706c696573,Lakeshore Feed and Seed Pet Food and Supplies,5116 Clark Avenue, Cleveland,OH,44102, United States of America
5152e6e43dee6c54c05901d5e24f2cbe4440f00102f9010019c23700000000920318576573742053696465204d61726b6574205061726b696e67,West Side Market Parking,Market Avenue, Cleveland,OH,44113, United States of America
51b16331ecb76f54c05916ea33a30abd4440f00102f901a49f29380000000092031138397468204d616469736f6e2044656c69,89th Madison Deli,Madison Avenue, Cleveland,OH,44102, United States of America
5131532b3cb46a54c059d0fc33c8a2c04440f00102f9018b825b380000000092031345787472612053706163652053746f72616765,Extra Space Storage,East 30th Street, Cleveland,OH,44114, United States of America
5194466338ed6854c0593467384a0cc24440f00102f901fa4f99380000000092031157616465205061726b2047726f63657279,Wade Park Grocery,7101 Wade Park Avenue, Cleveland,OH,44106, United States of America
519e5ea042ce6c54c05963a1f10e98bd4440f00102f9014e3bc63800000000920311537461732046756e6572616c20486f6d65,Stas Funeral Home,Columbus Road, Cleveland,OH,44113, United States of America
512d68c913ff6c54c0595e40e8f586bf4440f00102f901966a9d390000000092031a4a61636f627320506176696c696f6e206174204e617574696361,Jacobs Pavilion at Nautica,2014 Sycamore Street, Cleveland,OH,44113, United States of America
5159c9d5d8536954c0593ed9831931bf4440f00102f90123dd663a000000009203144e6573626974742046756e6572616c20486f6d65,Nesbitt Funeral Home,Quincy Avenue, Cleveland,OH,44106, United States of America
5106f6b77b4e6d54c0592ce404f4bcbb4440f00102f9011b50f53c0000000092030d526970657069202620536f6e73,Ripepi & Sons,Fulton Road, Cleveland,OH,44109, United States of America
51dbd766a94d6d54c059e585b57441bc4440f00102f901b7b3043d0000000092030e446f6c6c61722047656e6572616c,Dollar General,3040 Fulton Road, Cleveland,OH,44109, United States of America
51790a140c426f54c059816ea85da7be4440f00102f90114ad0c3e00000000920315456467657761746572204e61747572652053686f70,Edgewater Nature Shop,Edgewater Beach House Pedestrian Bridge, Cleveland,OH,44102, United States of America
51470f8215156a54c0598ae9a94798bc4440f00102f9013f57323f0000000092030f5347442044657369676e20496e632e,SGD Design Inc.,4749 Broadway Avenue, Cleveland,OH,44105, United States of America
51c33aa049196a54c0592e8be55d9dbc4440f00102f9014057323f00000000920315434c4520446f677320537061202620536f6369616c,CLE Dogs Spa & Social,4703 Broadway Avenue, Cleveland,OH,44105, United States of America
5165d38f8b006c54c0592ae53b1bfebb4440f00102f901d1c510420000000092032041204368726973746d61732053746f727920486f7573652026204d757365756d,A Christmas Story House & Museum,West 11th Street, Cleveland,OH,44113, United States of America
51508bc1c3346c54c0590cecd5fbd7bf4440f00103f9014748a14d00000000920321576f6f6c776f727468205061726b696e672047617261676520456e7472616e6365,Woolworth Parking Garage Entrance,East 2nd Street, Cleveland,OH,44115, United States of America
5178955a94fe6c54c059d351f74608be4440f00103f9012eb622760000000092030e57686974616b6572204d65617473,Whitaker Meats,1979 West 25th Street, Cleveland,OH,44113, United States of America
512838abf4c96c54c0596cf6eb9337bc4440f00103f901e5c8597c0000000092030e54277320557262616e2047656172,T's Urban Gear,West 25th Street, Cleveland,OH,44109, United States of America
515f7b0b900d6c54c059e4ed3e0c08bb4440f00103f901403f497e0000000092030b446f6c6c61722054726565,Dollar Tree,3379 Steelyard Drive, Cleveland,OH,44109, United States of America
517a4e1f26066c54c0597a0e575d2cbb4440f00103f901433f497e0000000092030e54686520486f6d65204465706f74,The Home Depot,3355 Steelyard Drive, Cleveland,OH,44109, United States of America
51451f98480e6c54c0596309d44cf7ba4440f00103f901453f497e000000009203164b26472046617368696f6e20537570657273746f7265,K&G Fashion Superstore,3393 Steelyard Drive, Cleveland,OH,44109, United States of America
518bae1c6b106c54c059b24656c3d9ba4440f00103f901463f497e000000009203094d61727368616c6c73,Marshalls,3485 Steelyard Drive, Cleveland,OH,44109, United States of America
516363b9000f6c54c0597a41e0d7edba4440f00103f901473f497e000000009203084f6c64204e617679,Old Navy,3399 Steelyard Drive, Cleveland,OH,44109, United States of America
5110f5ccdc0d6c54c0590381266200bb4440f00103f901493f497e00000000920305506574636f,Petco,3387 Steelyard Drive, Cleveland,OH,44109, United States of America
51afc04648136c54c0590ba25110e1ba4440f00103f9014a3f497e0000000092030c53616c6c7920426561757479,Sally Beauty,3443 Steelyard Drive, Cleveland,OH,44109, United States of America
511f8a5d36156c54c0596be5106ca6ba4440f00103f9014e3f497e00000000920306546172676574,Target,3535 Steelyard Drive, Cleveland,OH,44109, United States of America
510e1478271f6c54c0594d7662c092ba4440f00103f9014f3f497e00000000920307566572697a6f6e,Verizon,3553 Steelyard Drive, Cleveland,OH,44109, United States of America
51253a7073cf6c54c059566337c247bc4440f00103f901fe377c7e00000000920309526974652053686f70,Rite Shop,Walton Avenue, Cleveland,OH,44113, United States of America
51fcd357a1126c54c0599e63ed8fe6ba4440f00103f9015cad20800000000092031142617468202620426f647920576f726b73,Bath & Body Works,3425 Steelyard Drive, Cleveland,OH,44109, United States of America
5197dd38ce126c54c059349fc597e4ba4440f00103f9015dad20800000000092030847616d6553746f70,GameStop,3435 Steelyard Drive, Cleveland,OH,44109, United States of America
514e289f79146c54c059d854f6a2d1ba4440f00103f90161ad2080000000009203057275653231,rue21,3495 Steelyard Drive, Cleveland,OH,44109, United States of America
51a6f402a2166c54c059153f7ec5bfba4440f00103f90162ad20800000000092030f46616d6f757320466f6f7477656172,Famous Footwear,3521 Steelyard Drive, Cleveland,OH,44109, United States of America
519cfc71561f6c54c059789f23ed90ba4440f00103f90163ad208000000000920303474e43,GNC,3555 Steelyard Drive, Cleveland,OH,44109, United States of America
51a2467c821f6c54c05939fe84ae8eba4440f00103f90164ad20800000000092030c5468652045786368616e6765,The Exchange,3573 Steelyard Drive, Cleveland,OH,44109, United States of America
51a7a9656bfd6c54c059ad2fea8e0fbe4440f00103f901f26760800000000092030b4b61746527732046697368,Kate's Fish,1979 West 25th Street, Cleveland,OH,44113, United States of America
517390c657f16c54c059144b53ee3ebc4440f00103f901e091ac870000000092030a536176652d412d4c6f74,Save-A-Lot,Walton Avenue, Cleveland,OH,44113, United States of America
5188f02f82c66c54c059919d5e13d2bc4440f00103f901f091ac870000000092031653756e2056616c6c657920436f6e76656e69656e6365,Sun Valley Convenience,2700 West 25th Street, Cleveland,OH,44109, United States of America
51d535a49b0e6d54c05934f7a1061dbe4440f00103f901f991ac8700000000920310486f72697a6f6e74616c20426f6f6b73,Horizontal Books,1921 West 25th Street, Cleveland,OH,44109, United States of America
51a8734529216c54c059b84a09066bbd4440f00103f901640dcf880000000092030c436976696c697a6174696f6e,Civilization,Kenilworth Avenue, Cleveland,OH,44113, United States of America
51858549a7646d54c059f87d12d3cfbe4440f00103f901d437818d000000009203114c696e6461277320537570657265747465,Linda's Superette,Detroit Avenue, Cleveland,OH,44113, United States of America
51ee618acda26954c059302cdbcc7cbe4440f00103f90193992a9100000000920310486f6d65746f776e2047726f63657279,Hometown Grocery,Woodland Avenue, Cleveland,OH,44104, United States of America
5128716770a56954c05900936a2edcbd4440f00103f901616c4a910000000092030d4a75737420576972656c657373,Just Wireless,2725 East 55th Street, Cleveland,OH,44105, United States of America
51e60e513bb26954c059b2f065d69cc14440f00103f901656c4a91000000009203105261696e657920496e73746974757465,Rainey Institute,Whittier Avenue, Cleveland,OH,44103, United States of America
514e6f35a1ff6954c059367b007503c24440f00103f90157f3209200000000920322426573742042757920546972652026206175746f6d6f746976652073657276696365,Best Buy Tire & automotive service,4890 Superior Avenue, Cleveland,OH,44112, United States of America
5167ed11c5bf6954c0596f83c5cbd3c04440f00103f9016109a89200000000920311526f636b20436c696666204d61726b6574,Rock Cliff Market,Chester Avenue, Cleveland,OH,44113, United States of America
51cc5257e3116d54c059b016ef563bbe4440f00103f90119e01f950000000092031854686520476c61737320427562626c652050726f6a656374,The Glass Bubble Project,West 24th Place, Cleveland,OH,44113, United States of America
51de44e33f136d54c059591aca29f0bd4440f00103f9014dcda19600000000920325416c6c737461746520486169727374796c696e6720262042617262657220436f6c6c656765,Allstate Hairstyling & Barber College,West 26th Street, Cleveland,OH,44113, United States of America
5120cdfd7aaa6954c059c297b889a4be4440f00103f90138e8b39a0000000092030e446973636f756e74732052205573,Discounts R Us,East 56th Street, Cleveland,OH,44104, United States of America
515b728170aa6954c059742086f6a0be4440f00103f90139e8b39a0000000092030953757061737461727a,Supastarz,East 56th Street, Cleveland,OH,44104, United States of America
51e39bb7fb666c54c05989124818abbf4440f00103f90183d1779b000000009203084120446f6c6c6172,A Dollar,West Prospect Avenue, Cleveland,OH,44113, United States of America
518b16a06db56954c059360ef5ef44c24440f00103f901f9f0879c0000000092030a452654204d61726b6574,E&T Market,Superior Avenue, Cleveland,OH,44112, United States of America
5144454195bf6e54c059f70d1e46f7bd4440f00103f901637e9e9c000000009203155375706572656c6563747269632050696e62616c6c,Superelectric Pinball,6500 Detroit Avenue, Cleveland,OH,44102, United States of America
517fd18a14ef6b54c0590d505d99a6bd4440f00103f901cf284e9d0000000092031050726f666573736f72204d61726b6574,Professor Market,Literary Road, Cleveland,OH,44113, United States of America
51355c3f58216c54c059ff0c010572bd4440f00103f901d3284e9d0000000092031747656e746c656d616e2773204261726265722053686f70,Gentleman's Barber Shop,West 11th Street, Cleveland,OH,44113, United States of America
51dfdffb766d6d54c0592419dc6564bd4440f00103f901982eff9e000000009203124c6120426f72696e63616e6120466f6f6473,La Borincana Foods,Chatham Avenue, Cleveland,OH,44113, United States of America
5131f037352b6c54c0595db28a7cf2bf4440f00103f90174bec89f0000000092031054686520436f726e657220416c6c6579,The Corner Alley,402 Euclid Avenue, Cleveland,OH,44114, United States of America
518b15dade136d54c05978eaa21c16be4440f00103f90160bc2fa00000000092030d46616d696c7920446f6c6c6172,Family Dollar,Carroll Avenue, Cleveland,OH,44113, United States of America
51396e9d24026d54c059a33b27f103be4440f00103f9016cbc2fa00000000092030f4f68696f2043697479205061737461,Ohio City Pasta,1979 West 25th Street, Cleveland,OH,44113, United States of America
514123d8b8fe6c54c0599c727f8406be4440f00103f90173bc2fa000000000920306566572612773,Vera's,1979 West 25th Street, Cleveland,OH,44113, United States of America
5195c73fd84e6f54c05969054758f9bd4440f00103f90107b349a00000000092031337387468205374726565742053747564696f73,78th Street Studios,West 79th Place, Cleveland,OH,44102, United States of America
51b4c766a2e36854c059a4c0c3e803c04440f00103f9013b2da7a0000000009203205065726e656c204a6f6e6573202620536f6e732046756e6572616c20486f6d65,Pernel Jones & Sons Funeral Home,7120 Cedar Avenue, Cleveland,OH,44103, United States of America
51ff42ead1af6b54c0597d299aa729bd4440f00103f901407914a10000000092030845766965204c6f75,Evie Lou,Professor Avenue, Cleveland,OH,44113, United States of America
515deedd301b6d54c05958df43bd2abe4440f00103f901e9e391a70000000092031647616961204e61696c204c6f756e6765202620537061,Gaia Nail Lounge & Spa,1870 West 25th Street, Cleveland,OH,44113, United States of America
510195e0c3db6c54c05969a2ac13e1bf4440f00103f901141c3dac0000000092030f42696c6c277320436c65616e657273,Bill's Cleaners,1300 West 9th Street, Cleveland,OH,44113, United States of America
51db7b5d2b466c54c0591c325ffef9bc4440f00103f9014533f0b70000000092030f5472656d6f6e74204c61756e647279,Tremont Laundry,Auburn Avenue, Cleveland,OH,44113, United States of America
514425bf8fb46954c059e5d728c412c34440f00103f901e32558b8000000009203175374696e6b2773204261697420616e64205461636b6c65,Stink's Bait and Tackle,Carry Avenue, Cleveland,OH,44103, United States of America
51c959d8d38e6a54c059e8da4c14c6be4440f00103f901c2a5aeb90000000092030d4465616e277320537570706c79,Dean's Supply,Woodland Avenue, Cleveland,OH,44104, United States of America
51f7f2f1bfcb6a54c05919a28c91dbbf4440f00103f901e6ef8bba0000000092030b537175617265204465616c,Square Deal,Cedar Avenue, Cleveland,OH,44115, United States of America
518a42812d656c54c059a6b9b34fb6bf4440f00103f9019937f4be00000000920308636c616972652773,claire's,West Prospect Avenue, Cleveland,OH,44113, United States of America
5162ad461b6c6c54c059b70cc5acbcbf4440f00103f9019a37f4be00000000920308506c617962616c6c,Playball,50 West Prospect Avenue, Cleveland,OH,44113, United States of America
510fcbb09b636c54c0597517ff17bebf4440f00103f9019b37f4be000000009203155768697465204261726e2043616e646c6520436f2e,White Barn Candle Co.,50 West Prospect Avenue, Cleveland,OH,44113, United States of America
51ea2f05b5a96e54c05945be9751d1bc4440f00103f901bb0f5cc0000000009203244d656e796861727420506c756d62696e6720616e642048656174696e6720537570706c79,Menyhart Plumbing and Heating Supply,6304 Lorain Avenue, Cleveland,OH,44102, United States of America
5105977d0df76c54c05924a5cb3b3dbf4440f00103f901b0916ec200000000920318436174616e65736520436c617373696320536561666f6f64,Catanese Classic Seafood,1600 Merwin Avenue, Cleveland,OH,44113, United States of America
51142411757a6b54c059eb2a6d00dbc04440f00103f9017f7e3bcb000000009203084172746566696e6f,Artefino,1900 Superior Avenue East, Cleveland,OH,44114, United States of America
5124010fb1666c54c059d144ba2ea1bf4440f00103f901e52d00d0000000009203075261696e626f77,Rainbow,RTA Walkway, Cleveland,OH,44113, United States of America
517f3edbb4636c54c059c25e5a08bcbf4440f00103f901ad5ad1d00000000092031142617468202620426f647920576f726b73,Bath & Body Works,50 West Prospect Avenue, Cleveland,OH,44113, United States of America
51e12b7068806d54c05944fad2c5a6be4440f00103f90181c948d90000000092031b546865204465616e20527566757320486f757365204f662046756e,The Dean Rufus House Of Fun,1393 West 29th Street, Cleveland,OH,44113, United States of America
518bc22e8a1e6c54c0596a3ea2e2eebf4440f00103f90148d618da0000000092030c46726120416e67656c696361,Fra Angelica,530 Euclid Avenue, Cleveland,OH,44115, United States of America
5170b1a206536b54c059a9a48e78b2c04440f00103f901e42e23db000000009203104e6f72746f6e204675726e6974757265,Norton Furniture,Payne Avenue, Cleveland,OH,44103, United States of America
51dbdc989eb06c54c05901ca1743debf4440f00103f901f6cc6bdb0000000092031444696e6f2050616c6d696572692053747564696f,Dino Palmieri Studio,1388 West 6th Street, Cleveland,OH,44113, United States of America
51641f6459b06c54c059269d1aadfebf4440f00103f901a92180db0000000092030d46617927732050737963686963,Fay's Psychic,410 West Saint Clair Avenue, Cleveland,OH,44113, United States of America
51674fb80dd96c54c0595df40979f3bf4440f00103f9011367b3db0000000092030c5374796c65204c6f756e6765,Style Lounge,1273 West 9th Street, Cleveland,OH,44113, United States of America
51f7e12021ca6c54c0591dab0585e6bf4440f00103f9012267b3db00000000920317537572726f756e64696e677320486f6d65204465636f72,Surroundings Home Decor,850 West Saint Clair Avenue, Cleveland,OH,44113, United States of America
512ebe688f176c54c059a0396d66e3bf4440f00103f901927a4adc00000000920314426f626279204327732042617262657273686f70,Bobby C's Barbershop,530 Euclid Avenue, Cleveland,OH,44115, United States of America
5111bf620d176c54c059504dbabcdebf4440f00103f901937a4adc0000000092030d436f6c6f6e69616c20436f696e,Colonial Coin,530 Euclid Avenue, Cleveland,OH,44115, United States of America
5140bd74eed16c54c05955f66d61ccbf4440f00103f9018f1563dc000000009203054b72757368,Krush,1360 West 9th Street, Cleveland,OH,44113, United States of America
51761b8af1d06c54c0598bb343e6cabf4440f00103f901911563dc00000000920316486172726973205374616e746f6e2047616c6c657279,Harris Stanton Gallery,1370 West 9th Street, Cleveland,OH,44113, United States of America
51aa5a1cdf286c54c0598f9cf623eabf4440f00103f9013da2c1dc0000000092030a48696c61726974696573,Hilarities,East 4th Street, Cleveland,OH,44115, United States of America
51df67017f1d6c54c059c728c391f6bf4440f00103f9017693d8dc0000000092031f526f636b65742046697a7a20536f646120616e642043616e64792053686f70,Rocket Fizz Soda and Candy Shop,530 Euclid Avenue, Cleveland,OH,44115, United States of America
51150555fe106c54c0595cc60e5e05c04440f00103f901eafef6dc0000000092031043697479204e65777320262047696674,City News & Gift,629 Euclid Avenue, Cleveland,OH,44114, United States of America
5124a35e4ba36b54c0591da056bb26c04440f00103f901d30d5edd00000000920322576573746669656c6420496e737572616e63652053747564696f2054686561747265,Westfield Insurance Studio Theatre,1375 Euclid Avenue, Cleveland,OH,44115, United States of America
51e20918b8976b54c05902b639132ec04440f00103f90138595edd000000009203114b656e6e65647927732043616261726574,Kennedy's Cabaret,1501 Euclid Avenue, Cleveland,OH,44115, United States of America
51399f950f9c6b54c059bfb1ab0e14c04440f00103f90166c660dd000000009203164272696769747465277320486169722053747564696f,Brigitte's Hair Studio,East 14th Street, Cleveland,OH,44115, United States of America
51e9fefb9db76b54c059ab7f92dbe5bf4440f00103f901241b76dd000000009203114f68696f204465736b20436f6d70616e79,Ohio Desk Company,1122 Prospect Avenue East, Cleveland,OH,44115, United States of America
51caf1af8adc6b54c059b53e1e893cc04440f00103f9011894f5dd0000000092031b50726f66657373696f6e616c20486169722044657369676e657273,Professional Hair Designers,1124 Chester Avenue, Cleveland,OH,44114, United States of America
514b3558dd0f6c54c059b51e840fcabf4440f00103f901597519df000000009203184d722e20416c626572742773204d656e277320576f726c64,Mr. Albert's Men's World,618 Prospect Avenue East, Cleveland,OH,44115, United States of America
51fdcb5aaf0e6c54c05997756a62cbbf4440f00103f9015a7519df0000000092030d4d6f2773204a6577656c657273,Mo's Jewelers,624 Prospect Avenue East, Cleveland,OH,44115, United States of America
5161003cfdfb6b54c059eaffc050d1bf4440f00103f9016b3c1adf00000000920317526561642773204a6577656c727920616e64204c6f616e,Read's Jewelry and Loan,740 Prospect Avenue East, Cleveland,OH,44115, United States of America
516918e368336c54c0596a3fa644b7bf4440f00103f90167154cdf0000000092030e412053686f7020466f72204d656e,A Shop For Men,2121 East 2nd Street, Cleveland,OH,44115, United States of America
5194abb3b5196c54c059644069379fc04440f00103f901120968df0000000092031b526f7373696f20506669737465722046696e65204a6577656c7279,Rossio Pfister Fine Jewelry,1301 East 9th Street, Cleveland,OH,44114, United States of America
51f764b4441d6c54c05929d803869bc04440f00103f901130968df0000000092030c46696e6572205468696e6773,Finer Things,1301 East 9th Street, Cleveland,OH,44114, United States of America
51efb3db78416c54c059f4f88ce4e1bc4440f00103f901d0f6efe10000000092030e53747564696f204c652042656175,Studio Le Beau,West 14th Street, Cleveland,OH,44113, United States of America
51651e543df46b54c05972afe7559dbd4440f00103f901dbb7cae30000000092030b42616e79616e2054726565,Banyan Tree,Professor Avenue, Cleveland,OH,44113, United States of America
5187dee2e1bd6954c0594c4b4c9583c24440f00103f9016fd244e400000000920314466564657261746564204175746f205061727473,Federated Auto Parts,1440 East 55th Street, Cleveland,OH,44103, United States of America
5199d9e7314a6c54c059bddcec5454bb4440f00103f901413878e40000000092030a4275726c696e67746f6e,Burlington,3350 Steelyard Drive, Cleveland,OH,44109, United States of America
513f715bb6b16954c059d236a5f0eac04440f00103f901c2d3d7e40000000092031f4772616e6470612773204b69746368656e20616e64204d696e692d4d617274,Grandpa's Kitchen and Mini-Mart,Curtis Court, Cleveland,OH,44103, United States of America
51058fcaa88d6e54c0590ebf59d9e3bc4440f00103f901726180e70000000092030a557262616e204b75747a,Urban Kutz,6014 Lorain Avenue, Cleveland,OH,44111, United States of America
51fa6b68b9226f54c05946c7c4e116bc4440f00103f90159eafae80000000092030f4561726c2773204361722043617265,Earl's Car Care,7301 Clark Avenue, Cleveland,OH,44102, United States of America
514a719f66126c54c059c4bdcedce8ba4440f00103f901857f3be90000000092030c4b6179204a6577656c657273,Kay Jewelers,3415 Steelyard Drive, Cleveland,OH,44109, United States of America
51efa600bd156c54c059743d0c4dc8ba4440f00103f901867f3be9000000009203075261696e626f77,Rainbow,3505 Steelyard Drive, Cleveland,OH,44109, United States of America
519ac129bd006c54c059085394da30c04440f00103f901b243d9ea000000009203074b696e6b6f2773,Kinko's,East 9th Street, Cleveland,OH,44114, United States of America
5158fa754c826a54c0599952cde039c14440f00103f90138a0dbef0000000092030d46616d696c7920446f6c6c6172,Family Dollar,3407 Payne Avenue, Cleveland,OH,44114, United States of America
517d27c1760b6c54c0596075098211bb4440f00103f9014f709df20000000092030a50617274792043697479,Party City,3373 Steelyard Drive, Cleveland,OH,44109, United States of America
517a174a81606f54c059ef7831c8a7bd4440f00103f9017ea863f300000000920312416d65726963616e20466f6f64204d617274,American Food Mart,West 80th Street, Cleveland,OH,44102, United States of America
51a933524a636f54c059a6e6106ca6bd4440f00103f90180a863f30000000092031341626527732042656175747920537570706c79,Abe's Beauty Supply,8004 Detroit Avenue, Cleveland,OH,44102, United States of America
5196afcbf09f6954c0596dd4fafb7bbe4440f00103f901563db4f600000000920311576f6f646c616e6420576972656c657373,Woodland Wireless,Woodland Avenue, Cleveland,OH,44104, United States of America
51ef9fb82d5b6c54c059c1b1ee539fbf4440f00103f9010bfb2ffa000000009203074d617269612773,Maria's,101 West Prospect Avenue, Cleveland,OH,44115, United States of America
517ea83462666c54c0590cad1fe0a4bf4440f00103f901fc3463fb000000009203084a6f75726e657973,Journeys,RTA Walkway, Cleveland,OH,44113, United States of America
51aefebe35666c54c059e994bd8fa3bf4440f00103f901fd3463fb0000000092030556696c6c61,Villa,RTA Walkway, Cleveland,OH,44113, United States of America
5138984d80616954c059075966ea64c24440f00103f90164865efc0000000092030a5370696e206379636c65,Spin cycle,Superior Avenue, Cleveland,OH,44112, United States of America
51df4d5c339e6d54c059aaa6a372b8ba4440f00103f901568f01080100000092030c426f6f7374204d6f62696c65,Boost Mobile,Fulton Road, Cleveland,OH,44109, United States of America
51a2fb28d9a06d54c05909afdc61b8ba4440f00103f901578f01080100000092030a4461697279204d617274,Dairy Mart,West 41st Street, Cleveland,OH,44109, United States of America
5187fd9e58a76d54c0599eadc3cc88ba4440f00103f901598f01080100000092030c50726f20576972656c657373,Pro Wireless,3569 Fulton Road, Cleveland,OH,44109, United States of America
5191b0146e1e6d54c0590fc06659e6bd4440f00103f901b0df8608010000009203144661726b6173205061737472792053686f707065,Farkas Pastry Shoppe,Lorain Avenue, Cleveland,OH,44111, United States of America
51872062de3e6f54c05996a8dfca6dbc4440f00103f901be679a080100000092030d416e7469717565732053686f70,Antiques Shop,Lorain Avenue, Cleveland,OH,44111, United States of America
5103e4f0eeed6b54c059bb65f201cbbf4440f00103f901eb1a4f090100000092030e4a6572726f64204f70746963616c,Jerrod Optical,800 Huron Road East, Cleveland,OH,44115, United States of America
51eff7d5662d6c54c059c522a2270ac04440f00103f90180c559090100000092030a50726f73706572697479,Prosperity,Euclid Avenue, Cleveland,OH,44114, United States of America
5113f4cdec296a54c0597c1fe32a05bf4440f00103f9015c82360a0100000092030b446f6c6c6172204d617274,Dollar Mart,2480 East 40th Street, Cleveland,OH,44115, United States of America
51471b47acc56e54c0593e508a40f5bd4440f00103f901f767770b0100000092030f486f6e6579636f6d622053616c6f6e,Honeycomb Salon,6514 Detroit Avenue, Cleveland,OH,44102, United States of America
5135e49f19c46e54c059aa942634eebd4440f00103f901fb67770b010000009203125475726e7374796c6520426f757469717565,Turnstyle Boutique,6505 Detroit Avenue, Cleveland,OH,44102, United States of America
5123e6481dd36954c0591fc048ad8bbf4440f00103f9016f0c780d0100000092031d5061756c2773205365727665205269746520466f6f64204d61726b6574,Paul's Serve Rite Food Market,4621 Central Avenue, Cleveland,OH,44104, United States of America
510460f2f56b6c54c0595e35c858b7bf4440f00103f901f6f5740f010000009203104661636573206279204c61436861c3a9,Faces by LaChaé,West Prospect Avenue, Cleveland,OH,44113, United States of America
51dc87bce56a6c54c0598147f235babf4440f00103f901f7f5740f0100000092031054686520476f6c642053746174696f6e,The Gold Station,50 West Prospect Avenue, Cleveland,OH,44113, United States of America
51b60dfed96a6c54c059cff8a6d3babf4440f00103f901faf5740f010000009203114578636c7573697665204a6577656c7279,Exclusive Jewelry,50 West Prospect Avenue, Cleveland,OH,44113, United States of America
514bcdd4da6a6c54c059d2db0a95c9bf4440f00103f901fcf5740f0100000092031144657369676e65722050657266756d6573,Designer Perfumes,50 West Roadway, Cleveland,OH,44113, United States of America
511e6915a2686c54c05974fbab56cbbf4440f00103f901fdf5740f0100000092030b466f6f74204c6f636b6572,Foot Locker,50 South Roadway, Cleveland,OH,44113, United States of America
51a529a7e26b6c54c05945936220bebf4440f00103f901fef5740f0100000092030d43726561746976652054656573,Creative Tees,50 West Prospect Avenue, Cleveland,OH,44113, United States of America
51c217dcc56a6c54c0598ce952fccebf4440f00103f901fff5740f0100000092031147617465776179204e6577737374616e64,Gateway Newsstand,50 West Roadway, Cleveland,OH,44113, United States of America
51dab232d06b6c54c059753d144ababf4440f00103f90100f6740f01000000920313446172696f2046617368696f6e2047726f7570,Dario Fashion Group,50 West Prospect Avenue, Cleveland,OH,44113, United States of America
5183143c855c6b54c059f3be4cfe27c04440f00103f901bc775710010000009203143139303020466f6f642026204265766572616765,1900 Food & Beverage,1900 Euclid Avenue, Cleveland,OH,44115, United States of America
5157e24bf26d6e54c0595e681aa31abe4440f00103f90186462f1101000000920314476f72646f6e20537175617265204d61726b6574,Gordon Square Market,5605 Detroit Avenue, Cleveland,OH,44199, United States of America
5122084614496c54c0593d0a2aef3ebb4440f00103f9018145531101000000920308536b656368657273,Skechers,3344 Steelyard Drive, Cleveland,OH,44109, United States of America
51050cdccbc76e54c059288e3040ecbd4440f00103f901bdc4ae11010000009203094c274f6365616e6e65,L'Oceanne,6519 Detroit Avenue, Cleveland,OH,44102, United States of America
518554f602586d54c059ba1283aad1be4440f00103f901bec4ae110100000092030c4a6f79204d616368696e6573,Joy Machines,2605 Detroit Avenue, Cleveland,OH,44113, United States of America
513d64ca87206c54c05987658215f1bf4440f00103f901680e0e1301000000920312436c6576656c616e6420496e204120426f78,Cleveland In A Box,530 Euclid Avenue, Cleveland,OH,44115, United States of America
516cd4f9a61f6c54c05922a48494e9bf4440f00103f901690e0e1301000000920312434c4520537465616d70756e6b2053686f70,CLE Steampunk Shop,530 Euclid Avenue, Cleveland,OH,44115, United States of America
51d3de3bc5856d54c0592be46878b3be4440f00103f901fdc26f1301000000920306537061636573,Spaces,Detroit Avenue, Cleveland,OH,44199, United States of America
511d22c907186c54c059f4e9d886e5bf4440f00103f9015e28531501000000920315486170707920486f757220436f6c6c656374696f6e,Happy Hour Collection,530 Euclid Avenue, Cleveland,OH,44115, United States of America
515e7e4c101a6c54c059ff1b9123e7bf4440f00103f9015f285315010000009203104465776974742773204a6577656c7279,Dewitt's Jewelry,530 Euclid Avenue, Cleveland,OH,44115, United States of America
51b870c56a186c54c059e8d9c227e7bf4440f00103f9016028531501000000920310566963746f726961204a65776c657273,Victoria Jewlers,530 Euclid Avenue, Cleveland,OH,44115, United States of America
51230d13b2186c54c05911252692e8bf4440f00103f901622853150100000092030c4b696c7465642042726f732e,Kilted Bros.,530 Euclid Avenue, Cleveland,OH,44115, United States of America
51ba7ec16ed86b54c05980cf37e73bc04440f00103f9015f6bbe180100000092030b53696d706c7920466f6f64,Simply Food,1120 Chester Avenue, Cleveland,OH,44115, United States of America
5138b41204d96b54c0592d22245058c04440f00103f9018b8a011a01000000920313313274682053747265657420466c6f72697374,12th Street Florist,1701 East 12th Street, Cleveland,OH,44114, United States of America
519dae38e6066c54c059d6e74c69a2bf4440f00103f901f5d44a1a0100000092030e43617673205465616d2053686f70,Cavs Team Shop,1 East 6th Street, Cleveland,OH,44115, United States of America
515689c3e36c6c54c05971380e4ba8bf4440f00103f901cdb4331f010000009203064368616d7073,Champs,West Prospect Avenue, Cleveland,OH,44113, United States of America
515b3ffd67cd6c54c059b3e104eb93bb4440f00103f90175f27021010000009203084527732044656c69,E's Deli,3259 West 25th Street, Cleveland,OH,44109, United States of America
51f648de94cd6c54c0590b333ec791bb4440f00103f90176f270210100000092031242656c6b792773204861697220506c616365,Belky's Hair Place,West 25th Street, Cleveland,OH,44109, United States of America
51804cc68ccb6c54c059599ad8c11cc04440f00103f90156c7f62401000000920310496e736f6d6e696120436f6f6b696573,Insomnia Cookies,1224 West 6th Street, Cleveland,OH,44113, United States of America
51fcd29112f16d54c0595b16555f4cbd4440f00103f901c676cf2501000000920318412773206f66204661646573204261726265722053686f70,A's of Fades Barber Shop,4500 Lorain Avenue, Cleveland,OH,44111, United States of America
51f6589f17136e54c0590b72421c35bd4440f00103f901c876cf2501000000920312446574726f6974204175746f205061727473,Detroit Auto Parts,4750 Lorain Avenue, Cleveland,OH,44111, United States of America
51a665ff97c66c54c0594a45c0c1cdbc4440f00103f901107f1f270100000092030d5669766120576972656c657373,Viva Wireless,West 26th Place, Cleveland,OH,44113, United States of America
51e665039fd56a54c059054a3b0e72c14440f00103f9017ed1062a0100000092031a4c616b6566726f6e74204175746f6d6f74697665205061727473,Lakefront Automotive Parts,3141 Superior Avenue East, Cleveland,OH,44114, United States of America
516155bdfcce6c54c059ed4823f543bc4440f00103f90176f0be2a010000009203134b696e67732042656175747920537570706c79,Kings Beauty Supply,Walton Avenue, Cleveland,OH,44113, United States of America
51d408a293ca6c54c059593981892ebc4440f00103f90177f0be2a0100000092030d4c69766520436c6f7468696e67,Live Clothing,West 25th Street, Cleveland,OH,44109, United States of America
5191bf6a1bb56d54c059048a7e0d77bd4440f00103f901633ca72d01000000920313436c6576656c616e6420427265772053686f70,Cleveland Brew Shop,Lorain Avenue, Cleveland,OH,44111, United States of America
51aaa1c3326c6c54c059c9534f1ab4bf4440f00103f9012d16512f01000000920308542d4d6f62696c65,T-Mobile,West Prospect Avenue, Cleveland,OH,44113, United States of America
515dd669496c6c54c0595d972414b6bf4440f00103f9012e16512f0100000092030e466f7265766572204a6577656c73,Forever Jewels,West Prospect Avenue, Cleveland,OH,44113, United States of America
512d663a2a6d6c54c0595fd98c07a5bf4440f00103f9013116512f01000000920312416d65726963616e204772656574696e6773,American Greetings,RTA Walkway, Cleveland,OH,44113, United States of America
51bce3b963d66b54c059e13dbb1c65bd4440f00103f9016f54ae2f01000000920305546964616c,Tidal,Professor Avenue, Cleveland,OH,44113, United States of America
5142470614c56c54c05907f7f8133abc4440f00103f90168625536010000009203114d6574726f20627920542d4d6f62696c65,Metro by T-Mobile,West 25th Street, Cleveland,OH,44109, United States of America
51b419f1aec46c54c05931425c7e3bbc4440f00103f9016962553601000000920310466c6f77204261726265722053686f70,Flow Barber Shop,West 25th Street, Cleveland,OH,44109, United States of America
51977a713de56a54c059962328b220c14440f00103f9016120723d0100000092030c5061726b20746f2053686f70,Park to Shop,Stuber Court, Cleveland,OH,44114, United States of America
5113b93bc6f06b54c05972c18faf98bd4440f00103f9019d5c263e0100000092031356697369626c6520566f69636520426f6f6b73,Visible Voice Books,Professor Avenue, Cleveland,OH,44113, United States of America
519e1c4f151d6c54c059ff07244be6bf4440f00103f901ef944f41010000009203054d6574726f,Metro,530 Euclid Avenue, Cleveland,OH,44114, United States of America
51a038807e5f6e54c0595f15894e2abb4440f00103f9015709a4410100000092031053746f726572204175746f20426f6479,Storer Auto Body,Storer Avenue, Cleveland,OH,44102, United States of America
514510429b776d54c0594ba6243031bb4440f00103f9017e09a441010000009203144d617274696e277320486169722053747564696f,Martin's Hair Studio,3370 Fulton Road, Cleveland,OH,44109, United States of America
51e41824d8936e54c059690bfa6129bb4440f00103f9017f09a441010000009203174a75616e6e61204469617a204175746f20526570616972,Juanna Diaz Auto Repair,West 60th Street, Cleveland,OH,44102, United States of America
51b2005c7f816e54c059c35c333e27bb4440f00103f9018009a4410100000092030a44616972792044656c69,Dairy Deli,West 59th Street, Cleveland,OH,44102, United States of America
510b5300312e6b54c05911cae28d71c14440f00103f90143249b4401000000920315556e636c652042656e2773205061776e2053686f70,Uncle Ben's Pawn Shop,Saint Clair Avenue Northeast, Cleveland,OH,44114, United States of America
51040cdccb476c54c05996860e5afebf4440f00103f90132411f45010000009203104369747920436f6e76656e69656e6365,City Convenience,200 Euclid Avenue, Cleveland,OH,44114, United States of America
51850b7904376d54c059b7173d461ebe4440f00103f901e490a94601000000920319466c6f72616c20616e64204672756974205061726164697365,Floral and Fruit Paradise,Bridge Avenue, Cleveland,OH,44102, United States of America
51e7d88bb2486c54c0590384acfd42bb4440f00103f901a5e51a4d0100000092030444544c52,DTLR,3348 Steelyard Drive, Cleveland,OH,44109, United States of America
51f39ce392196c54c059658221a68eba4440f00103f901aae51a4d0100000092030d3239204e61696c2053616c6f6e,29 Nail Salon,3563 Steelyard Drive, Cleveland,OH,44109, United States of America
518df4fd2f326b54c059783f9fa16ec14440f00103f901720a3b530100000092031a4772616e6e7920416e6e6527732044727920436c65616e696e67,Granny Anne's Dry Cleaning,Saint Clair Avenue Northeast, Cleveland,OH,44114, United States of America
51d8fd744d126d54c059ab4b6b6226be4440f00103f901da49225401000000920313536f6d657468696e6720446966666572656e74,Something Different,1899 West 25th Street, Cleveland,OH,44109, United States of America
51581a9d981a6c54c0590c28348eecbf4440f00103f9017f5a73540100000092030d47656d7320426f757469717565,Gems Boutique,530 Euclid Avenue, Cleveland,OH,44114, United States of America
5181b68b1f196c54c0594bd7f028dfbf4440f00103f901805a73540100000092030c43686f636f6c617465203736,Chocolate 76,530 Euclid Avenue, Cleveland,OH,44115, United States of America
510d000b4f1e6c54c059eb0e89c0ecbf4440f00103f901825a73540100000092030b5374796c6520486f757365,Style House,530 Euclid Avenue, Cleveland,OH,44115, United States of America
51f90670c4a46c54c05949328266c6bf4440f00103f9013a91905501000000920317526f636b6566656c6c6572204261726265722053686f70,Rockefeller Barber Shop,614 West Superior Avenue, Cleveland,OH,44113, United States of America
51384e0af31e6c54c059cf6f1a7be5bf4440f00103f901266443590100000092030d576520426c656564204f68696f,We Bleed Ohio,530 Euclid Avenue, Cleveland,OH,44115, United States of America
5121815028d56e54c05987d8e82bedbd4440f00103f90116c8605c01000000920305466f756e74,Fount,Detroit Avenue, Cleveland,OH,44102, United States of America
519e2397a4576d54c05999e9f401dcbe4440f00103f9016e4cad670100000092030f5468652047726f63657279204f4843,The Grocery OHC,2550 Detroit Avenue, Cleveland,OH,44113, United States of America
515c8bbbe6fa6c54c059713adfdedabd4440f00103f901f1376a680100000092030c526f6f6d2053657276696365,Room Service,West 25th Street, Cleveland,OH,44109, United States of America
51113a43cc006d54c059704666cee9bd4440f00103f901f3376a680100000092031c54686520436c6576656c616e642043616e646c6520436f6d70616e79,The Cleveland Candle Company,West 25th Street, Cleveland,OH,44109, United States of America
51e462b1f2f06c54c059a466b379c1bd4440f00103f901f6376a680100000092031457696c642043616374757320426f757469717565,Wild Cactus Boutique,2138 North West 25th Street, Cleveland,OH,44109, United States of America
51ea877da76e6c54c05990eacefdd5bf4440f00103f90179d2d06b0100000092030c426f6f7374204d6f62696c65,Boost Mobile,24 West Roadway, Cleveland,OH,44113, United States of America
51ac40e378746d54c0596f1b9700a1be4440f00103f901e020e9710100000092030c557262616e204f7263686964,Urban Orchid,1455 West 29th Street, Cleveland,OH,44113, United States of America
51b67526231d6954c059b151b51199c04440f00103f901959e817501000000920309436166652050686978,Cafe Phix,6815 Euclid Avenue, Cleveland,OH,44103, United States of America
51d55b5e14186b54c059177c97862bc14440f00103f90108b0657701000000920314436c6576656c616e64205072696e7420526f6f6d,Cleveland Print Room,2550 Superior Avenue East, Cleveland,OH,44114, United States of America
51b1805369556e54c05916e2803628be4440f00103f901edb6537f01000000920313426c61636b6361742042617262657273686f70,Blackcat Barbershop,5405 Detroit Avenue, Cleveland,OH,44199, United States of America
5179735d9d886d54c059d9e18377a8be4440f00103f901bc6c33800100000092030f4176616c6f6e2045786368616e6765,Avalon Exchange,2925 Detroit Avenue, Cleveland,OH,44199, United States of America
51a5a9f985326c54c0591fbae4fd13c04440f00103f9016ef2ef80010000009203124d6172656e676f204c757875727920537061,Marengo Luxury Spa,Superior Avenue East, Cleveland,OH,44114, United States of America
51bd1c76df316c54c0590cd59f4209c04440f00103f9016ff2ef8001000000920311446179647265616d7320616e6420546561,Daydreams and Tea,Euclid Avenue, Cleveland,OH,44114, United States of America
5127c7f88b346c54c0595bd0d0ce0ec04440f00103f90170f2ef80010000009203164c6f6c6127732042726964616c20426f757469717565,Lola's Bridal Boutique,Superior Avenue East, Cleveland,OH,44114, United States of America
51324e4354e16b54c059851f4ddf6bc04440f00103f9018c83d28501000000920303444758,DGX,1701 East 12th Street, Cleveland,OH,44114, United States of America
51e9a111c7956e54c0593caa171c14be4440f00103f901889cd3a00100000092030f53686f7265776179204d61726b6574,Shoreway Market,Detroit Avenue, Cleveland,OH,44199, United States of America
51db1a6c45766d54c059625173929cbe4440f00103f9018b9cd3a0010000009203064c6172646572,Larder,1455 West 29th Street, Cleveland,OH,44113, United States of America
51d8ee1ea0fb6c54c0595263b30ddcbd4440f00103f901810a02a301000000920309586869626974696f6e,Xhibition,West 25th Street, Cleveland,OH,44109, United States of America
518158dbb9d56a54c0599ecea0d513c14440f00103f901156b3ca50100000092030e4261796f6e204a6577656c657273,Bayon Jewelers,East 30th Street, Cleveland,OH,44114, United States of America
516f04f3a1d56a54c059bc65122917c14440f00103f901938197a60100000092030c53697920416e204472657373,Siy An Dress,East 30th Street, Cleveland,OH,44114, United States of America
5136841909236d54c0591ad0aaca08be4440f00103f901e9f0c8b0010000009203244772656174204c616b65732042726577696e6720436f2e2054617374696e6720526f6f6d,Great Lakes Brewing Co. Tasting Room,Carroll Avenue, Cleveland,OH,44113, United States of America
517bc0971dbd6d54c05909d1b5cf19bc4440f00103f90121411ecb0100000092032e47656e6572616c204d656368616e69637320616e64205472616e736d697373696f6e205370656369616c69737473,General Mechanics and Transmission Specialists,4207 Clark Avenue, Cleveland,OH,44102, United States of America
51901b8f63b56d54c05928b616061bbc4440f00103f90124411ecb01000000920320436c6576656c616e6420536577696e6720616e6420436f6e66656374696f6e73,Cleveland Sewing and Confections,4121 Clark Avenue, Cleveland,OH,44102, United States of America
514ed8d9eb386d54c059599f72361dbe4440f00103f90122b8e4f40100000092030e4a2e2050616c656e20486f757365,J. Palen House,2708 Bridge Avenue, Cleveland,OH,44113, United States of America
51e7b7f990816d54c0592d7e82bfa9be4440f00103f9016ea8e6f401000000920317426c6f7720486169722026204e61696c2053747564696f,Blow Hair & Nail Studio,1428;1410 West 29th Street, Cleveland,OH,44113, United States of America
5170229ffc826d54c05926f7594fadbe4440f00103f9016fa8e6f4010000009203094c756c756c656d6f6e,Lululemon,Detroit Avenue, Cleveland,OH,44199, United States of America
51dbaada24756d54c059efddfc15d7bd4440f00103f90148f16bf5010000009203105468652053747564696f2053616c6f6e,The Studio Salon,Fulton Road, Cleveland,OH,44113, United States of America
51bc46dcad766c54c059eaca04f74dbd4440f00103f901d78d5bfb0100000092030b546865204c696d696e6973,The Liminis,Brevier Avenue, Cleveland,OH,44113, United States of America
515da21fb26d6b54c059c4edad7ce0bf4440f00103f90180bdeafd010000009203125468652053616c766174696f6e2041726d79,The Salvation Army,East 18th Street, Cleveland,OH,44115, United States of America
51d94f6b3fbe6d54c0591a6e634271bd4440f00103f901b05456fe010000009203124c616b6520457269652050657420466f6f64,Lake Erie Pet Food,Lorain Avenue, Cleveland,OH,44111, United States of America
5196dbacb0cf6954c0595fb719fd0dbc4440f00103f901a82fa1000200000092030e53616d2773204265766572616765,Sam's Beverage,Magnet Avenue, Cleveland,OH,44127, United States of America
5147426cfa7d6a54c059270db5eb39c14440f00103f9014cb18a04020000009203084265617574793455,Beauty4U,Payne Avenue, Cleveland,OH,44114, United States of America
5111024ddfc66a54c059bafb29d3c3c04440f00103f90135688b0402000000920306436f6c6f6e79,Colony,East 30th Street, Cleveland,OH,44114, United States of America
515527b1b5086d54c05988d5fc2ce0bf4440f00103f901900750070200000092030d53616d73656c20537570706c79,Samsel Supply,1235 Old River Road, Cleveland,OH,44113, United States of America
510b84ae8e2d6c54c059f90e43f053bb4440f00103f9015011be1802000000920308542d4d6f62696c65,T-Mobile,3340 Steelyard Drive, Cleveland,OH,44109, United States of America
51e5f10fb6336c54c059a99e7a443bbb4440f00103f9017111be180200000092030d4d61747472657373204669726d,Mattress Firm,3356 Steelyard Drive, Cleveland,OH,44109, United States of America
51e2b6c71c156c54c059ad9f398bcdba4440f00103f9010112be18020000009203084361727465722773,Carter's,3501 Steelyard Drive, Cleveland,OH,44109, United States of America
518a77dbe01f6c54c059cd4a44f34aba4440f00103f9014012be180200000092030441542654,AT&T,3606 Steelyard Drive, Cleveland,OH,44109, United States of America
515a608f89146f54c05912161cfe89bc4440f00103f9012ba9bf1c0200000092031043656e7475727920416e746971756573,Century Antiques,7410 Lorain Avenue, Cleveland,OH,44111, United States of America
51d333bdc4d86d54c059f62c943655bd4440f00103f901806be01c020000009203105368657277696e2d57696c6c69616d73,Sherwin-Williams,4329 Lorain Avenue, Cleveland,OH,44111, United States of America
51f772fad5f76954c05965e1842c0bc24440f00103f9016e5c972e02000000920309466f6f64204d617274,Food Mart,East 49th Street, Cleveland,OH,44103, United States of America
511f24b0de4d6d54c05998df499ae4be4440f00103f90175bfe53102000000920316415047204f6666696365204675726e697368696e6773,APG Office Furnishings,2550 Detroit Avenue, Cleveland,OH,44113, United States of America
511bb62dca6c6d54c059e9203f05c0be4440f00103f9017dc0e9310200000092031f436c6576656c616e6420426f74616e6963616c2044657374696e6174696f6e,Cleveland Botanical Destination,Detroit Avenue, Cleveland,OH,44199, United States of America
510404cead6b6d54c05954a3e700c1be4440f00103f9017ec0e931020000009203155072656d696572204261726265722053747564696f,Premier Barber Studio,Detroit Avenue, Cleveland,OH,44199, United States of America
51c3e9c9a16a6d54c0594cb265e3c1be4440f00103f9017fc0e93102000000920311486176656e204e61696c2053747564696f,Haven Nail Studio,Detroit Avenue, Cleveland,OH,44199, United States of America
51ad33be2f2e6c54c059db664cab21c04440f00103f901ba96353e0200000092030c442e4f2e2053756d6d657273,D.O. Summers,East 6th Street, Cleveland,OH,44114, United States of America
51eb4e779e786e54c059179362d630bb4440f00103f901ba6241510200000092030c42726f776e7320506c617a61,Browns Plaza,5800 Storer Avenue, Cleveland,OH,44102, United States of America
51e1d3522f2e6c54c0595d24ca12e7bf4440f00103f9018907f95102000000920318486f757365206f6620426c75657320476561722053686f70,House of Blues Gear Shop,East 4th Street, Cleveland,OH,44115, United States of America
51f38304d6bb6954c05945207a97e6bb4440f00103f9010638f6530200000092031842696c6c20616e642057696c6c2773204861742053686f70,Bill and Will's Hat Shop,5415 Broadway Avenue, Cleveland,OH,44127, United States of America
5118726c3d436b54c059340cc4e62dc04440f00103f901e357c05d0200000092030450756c70,Pulp,Euclid Avenue, Cleveland,OH,44115, United States of America
51420d9535206a54c059f20e309397bc4440f00103f90193d568640200000092031b427279616e742773204175746f6d6f746976652053657276696365,Bryant's Automotive Service,4720 Broadway Avenue, Cleveland,OH,44105, United States of America
51c2e6d2ae786c54c0593ed8acd337c04440f00103f9016bf2b1640200000092030d546865205550532053746f7265,The UPS Store,7 West Saint Clair Avenue, Cleveland,OH,44114, United States of America
51724408d9c36c54c059e70fea6745bc4440f00103f901cad4606602000000920305496e74726f,Intro,West 25th Street, Cleveland,OH,44109, United States of America
51a01fa1c1016a54c0594af8fc64d6c24440f00103f9018549c17f0200000092031952656275696c646572732045786368616e6765202852425829,Rebuilders Exchange (RBX),East 53rd Street, Cleveland,OH,44114, United States of America
519d6bf35a646c54c059bce1f308c9bf4440f00103f90199949981020000009203094461726c61666f7878,Darlafoxx,50 South Roadway, Cleveland,OH,44113, United States of America
516cd1b826136c54c05974ae3078e2ba4440f00103f901df2b8e8202000000920308537065637472756d,Spectrum,3441 Steelyard Drive, Cleveland,OH,44109, United States of America
51b87a04edc46e54c059641673b0edbd4440f00103f90111648e83020000009203104d792043757a696e2056696e74616765,My Cuzin Vintage,6507 Detroit Avenue, Cleveland,OH,44102, United States of America
51fc636bc71e6e54c059bd6e149e2bbd4440f00103f901e3387d8a02000000920311496d706f73746572732054686561746572,Imposters Theater,4828 Lorain Avenue, Cleveland,OH,44111, United States of America
51a39531f4be6e54c05987457a3bc2bc4440f00103f901e8387d8a0200000092031b4d697374616b6520427920546865204c616b65205265636f726473,Mistake By The Lake Records,6502 Lorain Avenue, Cleveland,OH,44111, United States of America
513f856dd5bf6e54c0595e3c96cdc1bc4440f00103f901e9387d8a0200000092031046616365204261726265722053686f70,Face Barber Shop,6504 Lorain Avenue, Cleveland,OH,44111, United States of America
5114a97a43ab6d54c059176f2756a1ba4440f00103f901fc2c8596020000009203115765737420536964652045787072657373,West Side Express,Bush Avenue, Cleveland,OH,44109, United States of America
51818efbfbb16c54c059b942182994bb4440f00103f901e6df479802000000920313546f6e7927732044656c69636174657373616e,Tony's Delicatessan,Meyer Avenue, Cleveland,OH,44109, United States of America
